IRIDIUM 26              
1 24903U 97043A   25239.62180199  .00000358  00000+0  11369-3 0  9996
2 24903  86.3899  80.5957 0002042  93.8866 266.2565 14.37189236467008
IRIDIUM 22              
1 24907U 97043E   25239.61077731  .00000333  00000+0  10808-3 0  9996
2 24907  86.3905  84.2044 0002201  90.6450 269.4999 14.35997317467022
DUMMY MASS 1            
1 24925U 97048A   25239.61383369  .00000390  00000+0  40340-4 0  9996
2 24925  86.3311 102.3016 0004363 244.7413 115.3360 14.87034914515742
DUMMY MASS 2            
1 24926U 97048B   25239.58788338  .00000390  00000+0  40601-4 0  9998
2 24926  86.3314 103.9353 0005022 263.4869  96.5784 14.86786860515511
IRIDIUM 29              
1 24944U 97051A   25239.60815163  .00000393  00000+0  12730-3 0  9996
2 24944  86.3942 113.9471 0002311  82.5137 277.6323 14.36516351463521
IRIDIUM 33              
1 24946U 97051C   25239.59882650  .00000234  00000+0  75487-4 0  9994
2 24946  86.3855 113.2171 0007075 190.2436 169.8617 14.34928647462987
IRIDIUM 28              
1 24948U 97051E   25239.60613675  .00000329  00000+0  10356-3 0  9995
2 24948  86.3942 111.4217 0001902  99.4933 260.6480 14.37426535464108
IRIDIUM 36              
1 24967U 97056C   25239.48866880  .00000354  00000+0  11119-3 0  9991
2 24967  86.4013 143.0749 0002296  91.2676 268.8785 14.37654213462462
